NORAD_CAT_ID,OBJECT_NAME,OBJECT_TYPE,EPOCH,MEAN_MOTION,ECCENTRICITY,INCLINATION,RA_OF_ASC_NODE,ARG_OF_PERICENTER,MEAN_ANOMALY,BSTAR,MEAN_MOTION_DOT,MEAN_MOTION_DDOT,TLE_LINE0,TLE_LINE1,TLE_LINE2,SEMIMAJOR_AXIS,PERIOD,APOGEE,PERIGEE,DECAYED
51717.0,STARLINK-3445,PAYLOAD,2022-02-25 16:00:01,15.76927415,9.990000000000004e-05,53.2178,119.4633,303.2457,197.5611,-0.0056141,-0.00840892,0.0,0 STARLINK-3445,1 51717U 22016D   22056.66668981 -.00840892  00000-0 -56141-2 0  9999,2 51717  53.2178 119.4633 0000999 303.2457 197.5611 15.76927415  1937,6717.2890000000025,91.317,339.825,338.483,0.0
51717.0,STARLINK-3445,PAYLOAD,2022-02-25 22:00:00,15.764868099999996,7.049999999999999e-05,53.2176,118.2175,36.3074,84.2813,-0.006033,-0.00881584,0.0,0 STARLINK-3445,1 51717U 22016D   22056.91667824 -.00881584  00000-0 -60330-2 0  9990,2 51717  53.2176 118.2175 0000705  36.3074  84.2813 15.76486810  1369,6718.541,91.342,340.879,339.932,0.0
51717.0,STARLINK-3445,PAYLOAD,2022-02-26 06:00:00,15.75852589,0.0001255,53.2178,116.5608,65.9293,147.1477,-0.0061405,-0.00873409,0.0,0 STARLINK-3445,1 51717U 22016D   22057.25001157 -.00873409  00000-0 -61405-2 0  9990,2 51717  53.2178 116.5608 0001255  65.9293 147.1477 15.75852589  2023,6720.343000000003,91.379,343.052,341.365,0.0
51717.0,STARLINK-3445,PAYLOAD,2022-02-26 14:00:01,15.75222605,0.0001126,53.2175,114.9074,65.5473,239.2597,-0.0063063,-0.00872434,0.0,0 STARLINK-3445,1 51717U 22016D   22057.58334491 -.00872434  00000-0 -63063-2 0  9995,2 51717  53.2175 114.9074 0001126  65.5473 239.2597 15.75222605  1465,6722.135,91.416,344.75699999999995,343.24300000000005,0.0
51717.0,STARLINK-3445,PAYLOAD,2022-02-26 22:00:00,15.74593742,0.0001044,53.2174,113.2518,59.8286,335.9541,-0.0064864999999999,-0.00872852,0.0,0 STARLINK-3445,1 51717U 22016D   22057.91667824 -.00872852  00000-0 -64865-2 0  9996,2 51717  53.2174 113.2518 0001044  59.8286 335.9541 15.74593742  1528,6723.924,91.452,346.491,345.088,0.0
51717.0,STARLINK-3445,PAYLOAD,2022-02-27 06:00:00,15.73940484,0.000128,53.2175,111.5997,51.6182,74.3878,-0.0062287,-0.00819941,0.0,0 STARLINK-3445,1 51717U 22016D   22058.25001157 -.00819941  00000-0 -62287-2 0  9991,2 51717  53.2175 111.5997 0001280  51.6182  74.3878 15.73940484  2175,6725.785,91.49,348.511,346.789,0.0
51717.0,STARLINK-3445,PAYLOAD,2022-02-27 14:00:01,15.73216887,0.0001326,53.2175,109.9507,55.6884,159.7853,-0.00014269,-0.00020611,0.0,0 STARLINK-3445,1 51717U 22016D   22058.58334491 -.00020611  00000-0 -14269-3 0  9993,2 51717  53.2175 109.9507 0001326  55.6884 159.7853 15.73216887  2238,6727.847,91.532,350.60400000000016,348.82,0.0
51717.0,STARLINK-3445,PAYLOAD,2022-02-27 22:00:00,15.73354435,0.0001049,53.2191,108.3017,56.0331,248.4848,-0.0033393,-0.00448089,0.0,0 STARLINK-3445,1 51717U 22016D   22058.91667824 -.00448089  00000-0 -33393-2 0  9990,2 51717  53.2191 108.3017 0001049  56.0331 248.4848 15.73354435  2286,6727.455,91.524,350.026,348.61400000000015,0.0
51717.0,STARLINK-3445,PAYLOAD,2022-02-28 06:00:00,15.7324834,0.0001213,53.2207,106.6556,58.8079,334.7117,-0.00019731,-0.00028275,0.0,0 STARLINK-3445,1 51717U 22016D   22059.25001157 -.00028275  00000-0 -19731-3 0  9991,2 51717  53.2207 106.6556 0001213  58.8079 334.7117 15.73248340  2336,6727.757,91.53,350.43800000000016,348.806,0.0
51717.0,STARLINK-3445,PAYLOAD,2022-02-28 14:00:01,15.7319345,0.0001281,53.22,105.0078,48.202,74.2856,8.1465e-05,0.00010825,0.0,0 STARLINK-3445,1 51717U 22016D   22059.58334491  .00010825  00000-0  81465-4 0  9991,2 51717  53.2200 105.0078 0001281  48.2020  74.2856 15.73193450  1780,6727.9140000000025,91.534,350.641,348.917,0.0
51717.0,STARLINK-3445,PAYLOAD,2022-02-28 22:00:00,15.73182412,0.0001087,53.22,103.3563,55.5206,155.8948,0.00039787,0.00055546,0.0,0 STARLINK-3445,1 51717U 22016D   22059.91667824  .00055546  00000-0  39787-3 0  9995,2 51717  53.2200 103.3563 0001087  55.5206 155.8948 15.73182412  1831,6727.945,91.534,350.542,349.079,0.0
51717.0,STARLINK-3445,PAYLOAD,2022-03-01 14:00:01,15.73158332,0.0001523,53.22,100.0596,52.4155,336.8458,0.00058697,0.00082422,0.0,0 STARLINK-3445,1 51717U 22016D   22060.58334491  .00082422  00000-0  58697-3 0  9995,2 51717  53.2200 100.0596 0001523  52.4155 336.8458 15.73158332  2545,6728.014,91.536,350.904,348.85400000000016,0.0
51717.0,STARLINK-3445,PAYLOAD,2022-03-01 22:00:01,15.73191013,0.000133,53.22,98.4082,59.2893,58.9543,0.00040292,0.00056285,0.0,0 STARLINK-3445,1 51717U 22016D   22060.91668981  .00056285  00000-0  40292-3 0  9996,2 51717  53.2200  98.4082 0001330  59.2893  58.9543 15.73191013  1993,6727.920999999999,91.534,350.681,348.891,0.0
51717.0,STARLINK-3445,PAYLOAD,2022-03-02 06:00:00,15.73235284,0.0001381,53.2198,96.7597,55.3719,151.7489,-0.00045248,-0.00063739,0.0,0 STARLINK-3445,1 51717U 22016D   22061.25001157 -.00063739  00000-0 -45248-3 0  9990,2 51717  53.2198  96.7597 0001381  55.3719 151.7489 15.73235284  2655,6727.795,91.531,350.589,348.73,0.0
51717.0,STARLINK-3445,PAYLOAD,2022-03-02 14:00:01,15.73188469,0.0001406,53.2191,95.1112,46.0292,250.0435,0.00052997,0.00074382,0.0,0 STARLINK-3445,1 51717U 22016D   22061.58334491  .00074382  00000-0  52997-3 0  9999,2 51717  53.2191  95.1112 0001406  46.0292 250.0435 15.73188469  2707,6727.928000000001,91.534,350.73900000000015,348.847,0.0
51717.0,STARLINK-3445,PAYLOAD,2022-03-02 22:00:00,15.7323327,0.0001131,53.219,93.4596,53.5844,331.4322,-0.00019091,-0.00027363,0.0,0 STARLINK-3445,1 51717U 22016D   22061.91667824 -.00027363  00000-0 -19091-3 0  9992,2 51717  53.2190  93.4596 0001131  53.5844 331.4322 15.73233270  2759,6727.8,91.531,350.426,348.904,0.0
51717.0,STARLINK-3445,PAYLOAD,2022-03-03 14:00:01,15.73186564,0.0001286999999999,53.2191,90.1626,40.7315,162.1763,0.00037402,0.00052167,0.0,0 STARLINK-3445,1 51717U 22016D   22062.58334491  .00052167  00000-0  37402-3 0  9991,2 51717  53.2191  90.1626 0001287  40.7315 162.1763 15.73186564  2257,6727.933000000001,91.534,350.664,348.93300000000005,0.0
51717.0,STARLINK-3445,PAYLOAD,2022-03-03 18:00:00,15.73267393,0.0001304,53.2193,89.3366,46.539,20.8368,-0.00073485,-0.00102795,0.0,0 STARLINK-3445,1 51717U 22016D   22062.75001157 -.00102795  00000-0 -73485-3 0  9996,2 51717  53.2193  89.3366 0001304  46.5390  20.8368 15.73267393  2887,6727.703,91.529,350.445,348.691,0.0
51717.0,STARLINK-3445,PAYLOAD,2022-03-03 22:00:00,15.73181351,0.0001315,53.2191,88.5111,55.0645,236.82,0.00028779,0.00039929,0.0,0 STARLINK-3445,1 51717U 22016D   22062.91667824  .00039929  00000-0  28779-3 0  9995,2 51717  53.2191  88.5111 0001315  55.0645 236.8200 15.73181351  2315,6727.948,91.534,350.6980000000001,348.92900000000014,0.0
51717.0,STARLINK-3445,PAYLOAD,2022-03-04 06:00:02,15.73251923,0.0001426999999999,53.2192,86.8626,51.2697,329.6009,-0.00047559,-0.00066985,0.0,0 STARLINK-3445,1 51717U 22016D   22063.25002315 -.00066985  00000-0 -47559-3 0  9992,2 51717  53.2192  86.8626 0001427  51.2697 329.6009 15.73251923  2969,6727.746999999999,91.53,350.57199999999995,348.652,0.0
51717.0,STARLINK-3445,PAYLOAD,2022-03-04 14:00:01,15.73188565,0.0001435,53.2186,85.2137,45.0265,64.8219,0.00033033,0.00045971,0.0,0 STARLINK-3445,1 51717U 22016D   22063.58335648  .00045971  00000-0  33033-3 0  9998,2 51717  53.2186  85.2137 0001435  45.0265  64.8219 15.73188565  2415,6727.928000000001,91.534,350.7580000000001,348.827,0.0
51717.0,STARLINK-3445,PAYLOAD,2022-03-04 22:00:00,15.73218892,0.0001245,53.2187,83.5623,55.6371,143.0827,0.00011992,0.00016256,0.0,0 STARLINK-3445,1 51717U 22016D   22063.91667824  .00016256  00000-0  11992-3 0  9993,2 51717  53.2187  83.5623 0001245  55.6371 143.0827 15.73218892  3076,6727.840999999999,91.532,350.5440000000001,348.869,0.0
51717.0,STARLINK-3445,PAYLOAD,2022-03-05 06:00:00,15.73230855,0.0001434,53.219,81.9141,53.8469,233.834,-0.00042838,-0.0006039,0.0,0 STARLINK-3445,1 51717U 22016D   22064.25001157 -.00060390  00000-0 -42838-3 0  9995,2 51717  53.2190  81.9141 0001434  53.8469 233.8340 15.73230855  2525,6727.807,91.531,350.63699999999994,348.707,0.0
51717.0,STARLINK-3445,PAYLOAD,2022-03-05 14:00:01,15.73185033,0.0001409,53.2191,80.2652,45.3101,331.3402,0.00027428,0.00038023,0.0,0 STARLINK-3445,1 51717U 22016D   22064.58334491  .00038023  00000-0  27428-3 0  9995,2 51717  53.2191  80.2652 0001409  45.3101 331.3402 15.73185033  2571,6727.938,91.534,350.751,348.855,0.0
51717.0,STARLINK-3445,PAYLOAD,2022-03-05 16:00:00,15.73212647,0.0001335,53.2193,79.8522,46.8153,82.0553,-0.00017789,-0.00025523,0.0,0 STARLINK-3445,1 51717U 22016D   22064.66667824 -.00025523  00000-0 -17789-3 0  9995,2 51717  53.2193  79.8522 0001335  46.8153  82.0553 15.73212647  3181,6727.859,91.532,350.622,348.826,0.0
51717.0,STARLINK-3445,PAYLOAD,2022-03-05 22:00:01,15.73178939,0.0001095999999999,53.2193,78.6138,48.2348,57.4114,0.00011573,0.00015638,0.0,0 STARLINK-3445,1 51717U 22016D   22064.91668981  .00015638  00000-0  11573-3 0  9997,2 51717  53.2193  78.6138 0001096  48.2348  57.4114 15.73178939  2629,6727.955,91.534,350.55800000000005,349.083,0.0
51717.0,STARLINK-3445,PAYLOAD,2022-03-06 06:00:00,15.73222665,0.0001179,53.2193,76.9659,38.8886,155.6217,-0.00042866,-0.00060406,0.0,0 STARLINK-3445,1 51717U 22016D   22065.25001157 -.00060406  00000-0 -42866-3 0  9995,2 51717  53.2193  76.9659 0001179  38.8886 155.6217 15.73222665  3286,6727.831,91.532,350.48900000000015,348.902,0.0
51717.0,STARLINK-3445,PAYLOAD,2022-03-06 14:00:01,15.7318497,0.0001161,53.2187,75.3168,31.6873,251.7429,0.00039392,0.00054991,0.0,0 STARLINK-3445,1 51717U 22016D   22065.58334491  .00054991  00000-0  39392-3 0  9991,2 51717  53.2187  75.3168 0001161  31.6873 251.7429 15.73184970  2733,6727.938,91.534,350.584,349.022,0.0
51717.0,STARLINK-3445,PAYLOAD,2022-03-06 22:00:00,15.73233094,0.0001063,53.219,73.6655,47.1933,325.1695,-0.0001336,-0.00019352,0.0,0 STARLINK-3445,1 51717U 22016D   22065.91667824 -.00019352  00000-0 -13360-3 0  9998,2 51717  53.2190  73.6655 0001063  47.1933 325.1695 15.73233094  3384,6727.801,91.531,350.381,348.951,0.0
